[{"OBJECT_NAME":"STARLINK-4187","OBJECT_ID":"2022-062W","EPOCH":"2026-03-09T06:53:54.085056","MEAN_MOTION":15.08839208,"ECCENTRICITY":0.00014375,"INCLINATION":53.2184,"RA_OF_ASC_NODE":36.2847,"ARG_OF_PERICENTER":89.146,"MEAN_ANOMALY":270.9696,"EPHEMERIS_TYPE":0,"CLASSIFICATION_TYPE":"U","NORAD_CAT_ID":52850,"ELEMENT_SET_NO":999,"REV_AT_EPOCH":20572,"BSTAR":-5.462073e-5,"MEAN_MOTION_DOT":-1.157e-5,"MEAN_MOTION_DDOT":0},{"OBJECT_NAME":"RAPIDEYE 2","OBJECT_ID":"2008-040A","EPOCH":"2026-03-09T16:28:01.823808","MEAN_MOTION":15.04945954,"ECCENTRICITY":0.00177122,"INCLINATION":97.4373,"RA_OF_ASC_NODE":102.2221,"ARG_OF_PERICENTER":194.2548,"MEAN_ANOMALY":165.8182,"EPHEMERIS_TYPE":0,"CLASSIFICATION_TYPE":"U","NORAD_CAT_ID":33312,"ELEMENT_SET_NO":999,"REV_AT_EPOCH":95100,"BSTAR":0.0001818221,"MEAN_MOTION_DOT":2.525e-5,"MEAN_MOTION_DDOT":0}]
